{
  "norad_id": 53837,
  "name": "STARLINK-4776",
  "history": [
    {
      "epoch": "2026-03-28T18:06:31.915584Z",
      "apogee_km": 540.6073018392563,
      "perigee_km": 538.9017648606241,
      "latitude_deg": 6.803664529209672e-05,
      "longitude_deg": 120.43932844308345,
      "height_km": 540.6979565154269,
      "semi_major_axis_km": 6917.89153334994,
      "eccentricity": 0.00012327,
      "inclination_deg": 53.2157,
      "raan_deg": 218.2427,
      "arg_perigee_deg": 93.2087,
      "mean_anomaly_deg": 266.9047,
      "mean_motion_rev_day": 15.08836354
    },
    {
      "epoch": "2026-03-30T01:54:14.034240Z",
      "apogee_km": 540.5667879198263,
      "perigee_km": 538.8851937840091,
      "latitude_deg": 3.51755413256524e-05,
      "longitude_deg": -3.73886549314812,
      "height_km": 540.7151096508527,
      "semi_major_axis_km": 6917.862990851917,
      "eccentricity": 0.00012154,
      "inclination_deg": 53.2167,
      "raan_deg": 212.2958,
      "arg_perigee_deg": 96.3698,
      "mean_anomaly_deg": 263.7433,
      "mean_motion_rev_day": 15.08845692
    },
    {
      "epoch": "2026-03-30T14:37:19.765056Z",
      "apogee_km": 540.6734704061737,
      "perigee_km": 538.8405052151638,
      "latitude_deg": 2.6192703117040538e-05,
      "longitude_deg": 162.58582972107968,
      "height_km": 540.8428634934247,
      "semi_major_axis_km": 6917.8939878106685,
      "eccentricity": 0.00013248,
      "inclination_deg": 53.2166,
      "raan_deg": 209.9167,
      "arg_perigee_deg": 101.9762,
      "mean_anomaly_deg": 258.1379,
      "mean_motion_rev_day": 15.08835551
    },
    {
      "epoch": "2026-03-31T08:06:33.658848Z",
      "apogee_km": 540.5548541665084,
      "perigee_km": 538.9028677989063,
      "latitude_deg": -6.128620296525667e-05,
      "longitude_deg": -103.7107986814938,
      "height_km": 540.6705158507257,
      "semi_major_axis_km": 6917.865860982707,
      "eccentricity": 0.0001194,
      "inclination_deg": 53.2176,
      "raan_deg": 206.6462,
      "arg_perigee_deg": 93.1707,
      "mean_anomaly_deg": 266.9421,
      "mean_motion_rev_day": 15.08844753
    },
    {
      "epoch": "2026-04-01T14:18:54.933696Z",
      "apogee_km": 540.643274012109,
      "perigee_km": 538.9456136357949,
      "latitude_deg": -5.4896267902906454e-05,
      "longitude_deg": 156.31164990483248,
      "height_km": 540.7164865200443,
      "semi_major_axis_km": 6917.931443823952,
      "eccentricity": 0.0001227,
      "inclination_deg": 53.2184,
      "raan_deg": 200.9978,
      "arg_perigee_deg": 91.7583,
      "mean_anomaly_deg": 268.3549,
      "mean_motion_rev_day": 15.08823297
    },
    {
      "epoch": "2026-04-02T17:20:27.403296Z",
      "apogee_km": 541.1754915203464,
      "perigee_km": 538.3345899748938,
      "latitude_deg": 3.997362767884514e-05,
      "longitude_deg": 104.7611259559004,
      "height_km": 540.8343482102265,
      "semi_major_axis_km": 6917.89204074762,
      "eccentricity": 0.00020533,
      "inclination_deg": 53.2193,
      "raan_deg": 195.9424,
      "arg_perigee_deg": 97.4582,
      "mean_anomaly_deg": 262.6644,
      "mean_motion_rev_day": 15.08836188
    },
    {
      "epoch": "2026-04-03T15:35:51.924192Z",
      "apogee_km": 540.8937270727074,
      "perigee_km": 538.6191237144385,
      "latitude_deg": 5.186672771069943e-05,
      "longitude_deg": 125.83110978229345,
      "height_km": 540.5272890140667,
      "semi_major_axis_km": 6917.893425393572,
      "eccentricity": 0.0001644,
      "inclination_deg": 53.2176,
      "raan_deg": 191.7786,
      "arg_perigee_deg": 83.7167,
      "mean_anomaly_deg": 276.4013,
      "mean_motion_rev_day": 15.08835735
    },
    {
      "epoch": "2026-04-04T13:51:15.061824Z",
      "apogee_km": 540.5784496766273,
      "perigee_km": 538.803335039448,
      "latitude_deg": -3.42600841100543e-05,
      "longitude_deg": 146.9088993879185,
      "height_km": 540.4992637420316,
      "semi_major_axis_km": 6917.827892358037,
      "eccentricity": 0.0001283,
      "inclination_deg": 53.2177,
      "raan_deg": 187.6169,
      "arg_perigee_deg": 84.3426,
      "mean_anomaly_deg": 275.7712,
      "mean_motion_rev_day": 15.08857175
    },
    {
      "epoch": "2026-04-05T12:06:40.262688Z",
      "apogee_km": 540.9739285496407,
      "perigee_km": 538.5808835982925,
      "latitude_deg": 1.852823228630601e-05,
      "longitude_deg": 167.97577121088705,
      "height_km": 540.5246217651481,
      "semi_major_axis_km": 6917.914406073966,
      "eccentricity": 0.00017296,
      "inclination_deg": 53.218,
      "raan_deg": 183.4528,
      "arg_perigee_deg": 82.8925,
      "mean_anomaly_deg": 277.2264,
      "mean_motion_rev_day": 15.08828871
    },
    {
      "epoch": "2026-04-06T05:35:54.147840Z",
      "apogee_km": 540.8436093981636,
      "perigee_km": 538.63915827237,
      "latitude_deg": -5.75682674649923e-05,
      "longitude_deg": -98.32201502103165,
      "height_km": 540.6399782861357,
      "semi_major_axis_km": 6917.8783838352665,
      "eccentricity": 0.00015933,
      "inclination_deg": 53.2177,
      "raan_deg": 180.1811,
      "arg_perigee_deg": 90.165,
      "mean_anomaly_deg": 269.9524,
      "mean_motion_rev_day": 15.08840656
    },
    {
      "epoch": "2026-04-07T11:48:13.838112Z",
      "apogee_km": 540.7683123960287,
      "perigee_km": 538.7502236967148,
      "latitude_deg": -1.7087639254445518e-05,
      "longitude_deg": 161.70647437793855,
      "height_km": 540.6832778732125,
      "semi_major_axis_km": 6917.896268046372,
      "eccentricity": 0.00014586,
      "inclination_deg": 53.2173,
      "raan_deg": 174.5321,
      "arg_perigee_deg": 91.6157,
      "mean_anomaly_deg": 268.5002,
      "mean_motion_rev_day": 15.08834805
    },
    {
      "epoch": "2026-04-08T11:39:00.955008Z",
      "apogee_km": 540.6940098014229,
      "perigee_km": 538.7993398205663,
      "latitude_deg": -4.345213311376715e-06,
      "longitude_deg": 158.5705227372518,
      "height_km": 540.6454229274298,
      "semi_major_axis_km": 6917.883674810994,
      "eccentricity": 0.00013694,
      "inclination_deg": 53.2175,
      "raan_deg": 170.0718,
      "arg_perigee_deg": 90.1841,
      "mean_anomaly_deg": 269.9308,
      "mean_motion_rev_day": 15.08838925
    },
    {
      "epoch": "2026-04-09T11:29:46.624704Z",
      "apogee_km": 540.6882197656814,
      "perigee_km": 538.7065369296606,
      "latitude_deg": -8.515844922704292e-06,
      "longitude_deg": 155.44040503754934,
      "height_km": 540.5505274126047,
      "semi_major_axis_km": 6917.834378347671,
      "eccentricity": 0.00014323,
      "inclination_deg": 53.2174,
      "raan_deg": 165.6113,
      "arg_perigee_deg": 87.5436,
      "mean_anomaly_deg": 272.572,
      "mean_motion_rev_day": 15.08855053
    },
    {
      "epoch": "2026-04-10T04:59:02.653440Z",
      "apogee_km": 541.0001622676964,
      "perigee_km": 538.5456878262885,
      "latitude_deg": 6.523830411660128e-06,
      "longitude_deg": -110.86517003227644,
      "height_km": 540.5834019637073,
      "semi_major_axis_km": 6917.909925046992,
      "eccentricity": 0.0001774,
      "inclination_deg": 53.2185,
      "raan_deg": 162.3407,
      "arg_perigee_deg": 86.0395,
      "mean_anomaly_deg": 274.08,
      "mean_motion_rev_day": 15.08830337
    },
    {
      "epoch": "2026-04-11T20:43:41.075040Z",
      "apogee_km": 540.8055416518646,
      "perigee_km": 538.6513183569605,
      "latitude_deg": -3.160317093878911e-06,
      "longitude_deg": 3.908101205513229,
      "height_km": 540.4856120044952,
      "semi_major_axis_km": 6917.865430004412,
      "eccentricity": 0.0001557,
      "inclination_deg": 53.2173,
      "raan_deg": 154.9063,
      "arg_perigee_deg": 82.625,
      "mean_anomaly_deg": 277.4919,
      "mean_motion_rev_day": 15.08844894
    },
    {
      "epoch": "2026-04-13T02:56:01.219776Z",
      "apogee_km": 540.8248807685159,
      "perigee_km": 538.70385220955,
      "latitude_deg": -1.0233951654175327e-05,
      "longitude_deg": -96.06644084293946,
      "height_km": 540.4460974981805,
      "semi_major_axis_km": 6917.901366489033,
      "eccentricity": 0.0001533,
      "inclination_deg": 53.2165,
      "raan_deg": 149.2562,
      "arg_perigee_deg": 78.3758,
      "mean_anomaly_deg": 281.7406,
      "mean_motion_rev_day": 15.08833137
    },
    {
      "epoch": "2026-04-14T12:19:06.964320Z",
      "apogee_km": 540.8069189934231,
      "perigee_km": 538.6805008208112,
      "latitude_deg": 1.2385198766428136e-05,
      "longitude_deg": 115.54367135042195,
      "height_km": 540.4332586042718,
      "semi_major_axis_km": 6917.880709907116,
      "eccentricity": 0.00015369,
      "inclination_deg": 53.2162,
      "raan_deg": 143.0113,
      "arg_perigee_deg": 78.8377,
      "mean_anomaly_deg": 281.2788,
      "mean_motion_rev_day": 15.08839895
    },
    {
      "epoch": "2026-04-15T08:59:07.655424Z",
      "apogee_km": 540.7755572608849,
      "perigee_km": 538.7040682280758,
      "latitude_deg": 5.418334666220519e-05,
      "longitude_deg": 160.82596658799062,
      "height_km": 540.4329333015355,
      "semi_major_axis_km": 6917.87681274448,
      "eccentricity": 0.00014972,
      "inclination_deg": 53.2164,
      "raan_deg": 139.1452,
      "arg_perigee_deg": 78.7353,
      "mean_anomaly_deg": 281.3808,
      "mean_motion_rev_day": 15.0884117
    },
    {
      "epoch": "2026-04-16T18:22:13.500192Z",
      "apogee_km": 540.7739366085816,
      "perigee_km": 538.7068748397514,
      "latitude_deg": -2.589988010884071e-07,
      "longitude_deg": 12.436304147068702,
      "height_km": 540.3592899148937,
      "semi_major_axis_km": 6917.877405724166,
      "eccentricity": 0.0001494,
      "inclination_deg": 53.2166,
      "raan_deg": 132.901,
      "arg_perigee_deg": 74.4751,
      "mean_anomaly_deg": 285.6406,
      "mean_motion_rev_day": 15.08840976
    }
  ]
}